NORAD_CAT_ID,OBJECT_NAME,OBJECT_TYPE,EPOCH,MEAN_MOTION,ECCENTRICITY,INCLINATION,RA_OF_ASC_NODE,ARG_OF_PERICENTER,MEAN_ANOMALY,BSTAR,MEAN_MOTION_DOT,MEAN_MOTION_DDOT,TLE_LINE0,TLE_LINE1,TLE_LINE2,SEMIMAJOR_AXIS,PERIOD,APOGEE,PERIGEE,DECAYED
54759.0,STARLINK-5215,PAYLOAD,2023-04-16 06:28:08,15.08399957,0.0001457,53.2178,110.5611,68.1488,291.9658,-0.0052755,-0.00082294,0.0,0 STARLINK-5215,1 54759U 22175B   23106.26954686 -.00082294  00000-0 -52755-2 0  9998,2 54759  53.2178 110.5611 0001457  68.1488 291.9658 15.08399957 18044,6919.226,95.465,542.099,540.083,0.0
54759.0,STARLINK-5215,PAYLOAD,2023-04-16 08:03:38,15.08292283,0.0001375,53.2183,110.2614,86.22,273.8949,-0.0067167,-0.00104074,0.0,0 STARLINK-5215,1 54759U 22175B   23106.33585866 -.00104074  00000-0 -67167-2 0  9990,2 54759  53.2183 110.2614 0001375  86.2200 273.8949 15.08292283 18059,6919.555,95.472,542.371,540.469,0.0
54759.0,STARLINK-5215,PAYLOAD,2023-04-16 17:36:21,15.0803254,0.0001779,53.2185,108.4791,80.9046,279.2147,-0.0089293,-0.00136668,0.0,0 STARLINK-5215,1 54759U 22175B   23106.73358449 -.00136668  00000-0 -89293-2 0  9997,2 54759  53.2185 108.4791 0001779  80.9046 279.2147 15.08032540 18118,6920.35,95.489,543.446,540.983,0.0
54759.0,STARLINK-5215,PAYLOAD,2023-04-17 06:00:00,15.07209195,0.0001674,53.2167,106.1667,84.9622,199.3933,-0.0015384,-0.00023626,0.0,0 STARLINK-5215,1 54759U 22175B   23107.25001157 -.00023626  00000-0 -15384-2 0  9995,2 54759  53.2167 106.1667 0001674  84.9622 199.3933 15.07209195 18197,6922.87,95.541,545.893,543.576,0.0
54759.0,STARLINK-5215,PAYLOAD,2023-04-17 14:00:01,15.07206509,0.0001569,53.2167,104.6739,82.779,211.1965,-0.00090129,-0.00013977,0.0,0 STARLINK-5215,1 54759U 22175B   23107.58334491 -.00013977  00000-0 -90129-3 0  9990,2 54759  53.2167 104.6739 0001569  82.7790 211.1965 15.07206509  1304,6922.878,95.541,545.829,543.657,0.0
54759.0,STARLINK-5215,PAYLOAD,2023-04-17 22:00:00,15.07206721,0.0001609,53.217,103.1796,92.5782,211.0344,0.0050102,0.00076818,0.0,0 STARLINK-5215,1 54759U 22175B   23107.91667824  .00076818  00000-0  50102-2 0  9993,2 54759  53.2170 103.1796 0001609  92.5782 211.0344 15.07206721 18292,6922.877,95.541,545.856,543.628,0.0
54759.0,STARLINK-5215,PAYLOAD,2023-04-18 14:00:01,15.07203774,0.0001572,53.2171,100.1956,89.7788,233.0976,-0.0014035,-0.00021582,0.0,0 STARLINK-5215,1 54759U 22175B   23108.58334491 -.00021582  00000-0 -14035-2 0  9993,2 54759  53.2171 100.1956 0001572  89.7788 233.0976 15.07203774  1305,6922.886,95.541,545.839,543.663,0.0
54759.0,STARLINK-5215,PAYLOAD,2023-04-18 18:00:00,15.07183593,0.0001555,53.2174,99.4485,96.7288,50.9633,0.0015152,0.00022842,0.0,0 STARLINK-5215,1 54759U 22175B   23108.75001157  .00022842  00000-0  15152-2 0  9991,2 54759  53.2174  99.4485 0001555  96.7288  50.9633 15.07183593 18422,6922.948,95.542,545.89,543.736,0.0
54759.0,STARLINK-5215,PAYLOAD,2023-04-18 22:00:00,15.07181503,0.0001607,53.2175,98.7017,99.7825,232.7177,0.0034605,0.00052753,0.0,0 STARLINK-5215,1 54759U 22175B   23108.91667824  .00052753  00000-0  34605-2 0  9996,2 54759  53.2175  98.7017 0001607  99.7825 232.7177 15.07181503  1305,6922.954,95.543,545.932,543.707,0.0
54759.0,STARLINK-5215,PAYLOAD,2023-04-19 14:00:01,15.07208643,0.0001438,53.2174,95.7176,95.4239,256.3291,-0.0013602,-0.0002093,0.0,0 STARLINK-5215,1 54759U 22175B   23109.58334491 -.00020930  00000-0 -13602-2 0  9999,2 54759  53.2174  95.7176 0001438  95.4239 256.3291 15.07208643  1305,6922.871,95.541,545.732,543.741,0.0
54759.0,STARLINK-5215,PAYLOAD,2023-04-19 16:00:01,15.07203967,0.0001453,53.2176,95.3438,99.585,344.6384,-0.00064099,-0.00010027,0.0,0 STARLINK-5215,1 54759U 22175B   23109.66668981 -.00010027  00000-0 -64099-3 0  9995,2 54759  53.2176  95.3438 0001453  99.5850 344.6384 15.07203967 18558,6922.886,95.541,545.757,543.745,0.0
54759.0,STARLINK-5215,PAYLOAD,2023-04-19 22:00:00,15.07190044,0.0001484,53.2177,94.2239,104.618,256.7631,0.00329,0.00050132,0.0,0 STARLINK-5215,1 54759U 22175B   23109.91667824  .00050132  00000-0  32900-2 0  9992,2 54759  53.2177  94.2239 0001484 104.6180 256.7631 15.07190044  1308,6922.928,95.542,545.821,543.766,0.0
54759.0,STARLINK-5215,PAYLOAD,2023-04-20 08:00:01,15.07207414,0.0001429,53.2178,92.36,91.0419,12.4563,-0.002196,-0.00033556,0.0,0 STARLINK-5215,1 54759U 22175B   23110.33335648 -.00033556  00000-0 -21960-2 0  9993,2 54759  53.2178  92.3600 0001429  91.0419  12.4563 15.07207414 18650,6922.875,95.541,545.729,543.751,0.0
54759.0,STARLINK-5215,PAYLOAD,2023-04-20 14:00:01,15.07191882,0.0001389,53.2175,91.2397,91.4693,289.1776,-0.0015302,-0.00023491,0.0,0 STARLINK-5215,1 54759U 22175B   23110.58334491 -.00023491  00000-0 -15302-2 0  9995,2 54759  53.2175  91.2397 0001389  91.4693 289.1776 15.07191882  1305,6922.923,95.542,545.749,543.826,0.0
54759.0,STARLINK-5215,PAYLOAD,2023-04-20 22:00:00,15.07175958,0.0001444,53.2178,89.7463,99.7218,290.5305,0.0027194,0.00041321,0.0,0 STARLINK-5215,1 54759U 22175B   23110.91667824  .00041321  00000-0  27194-2 0  9993,2 54759  53.2178  89.7463 0001444  99.7218 290.5305 15.07175958  1300,6922.971,95.543,545.836,543.837,0.0
54759.0,STARLINK-5215,PAYLOAD,2023-04-21 00:00:00,15.07198574,0.0001451,53.2179,89.3735,98.8157,23.8324,0.00024725,3.481e-05,0.0,0 STARLINK-5215,1 54759U 22175B   23111.00001157  .00003481  00000-0  24725-3 0  9998,2 54759  53.2179  89.3735 0001451  98.8157  23.8324 15.07198574 18753,6922.902,95.541,545.772,543.763,0.0
54759.0,STARLINK-5215,PAYLOAD,2023-04-21 05:49:29,15.07193302,0.000162,53.2193,88.2881,91.9177,268.2,-1.7511e-05,-5.5e-06,0.0,0 STARLINK-5215,1 54759U 22175B   23111.24269811 -.00000550  00000-0 -17511-4 0  9999,2 54759  53.2193  88.2881 0001620  91.9177 268.2000 15.07193302 20958,6922.918,95.542,545.905,543.662,0.0
54759.0,STARLINK-5215,PAYLOAD,2023-04-21 09:00:27,15.07195806,0.0001586,53.2195,87.6933,90.6353,269.482,-7.4752e-07,-2.95e-06,0.0,0 STARLINK-5215,1 54759U 22175B   23111.37532056 -.00000295  00000-0 -74752-6 0  9995,2 54759  53.2195  87.6933 0001586  90.6353 269.4820 15.07195806 20970,6922.911,95.542,545.874,543.678,0.0
54759.0,STARLINK-5215,PAYLOAD,2023-04-22 15:14:44,15.07213953,0.0001419,53.2188,82.0535,110.0561,250.0583,5.0048e-05,4.79e-06,0.0,0 STARLINK-5215,1 54759U 22175B   23112.63523220  .00000479  00000-0  50048-4 0  9990,2 54759  53.2188  82.0535 0001419 110.0561 250.0583 15.07213953 21160,6922.855,95.541,545.702,543.738,0.0
54759.0,STARLINK-5215,PAYLOAD,2023-04-23 07:09:38,15.07205711,0.0001431,53.2186,79.0842,90.5489,269.5667,0.00011692,1.497e-05,0.0,0 STARLINK-5215,1 54759U 22175B   23113.29835795  .00001497  00000-0  11692-3 0  9998,2 54759  53.2186  79.0842 0001431  90.5489 269.5667 15.07205711 19102,6922.88,95.541,545.736,543.755,0.0
54759.0,STARLINK-5215,PAYLOAD,2023-04-24 07:01:57,15.07223059,0.0001597,53.2192,74.6285,93.4667,266.6507,8.431e-05,1.001e-05,0.0,0 STARLINK-5215,1 54759U 22175B   23114.29302531  .00001001  00000-0  84310-4 0  9995,2 54759  53.2192  74.6285 0001597  93.4667 266.6507 15.07223059 19256,6922.827,95.54,545.798,543.587,0.0
54759.0,STARLINK-5215,PAYLOAD,2023-04-25 06:54:17,15.07219323,0.0001413,53.2194,70.1731,99.0077,261.1075,0.00015856,2.132e-05,0.0,0 STARLINK-5215,1 54759U 22175B   23115.28770005  .00002132  00000-0  15856-3 0  9994,2 54759  53.2194  70.1731 0001413  99.0077 261.1075 15.07219323 19405,6922.839,95.54,545.682,543.725,0.0
54759.0,STARLINK-5215,PAYLOAD,2023-04-26 06:46:39,15.07193208,0.0001205,53.2202,65.72,101.4024,258.7103,-0.00016998,-2.869e-05,0.0,0 STARLINK-5215,1 54759U 22175B   23116.28240346 -.00002869  00000-0 -16998-3 0  9992,2 54759  53.2202  65.7200 0001205 101.4024 258.7103 15.07193208 21719,6922.919,95.542,545.618,543.949,0.0
54759.0,STARLINK-5215,PAYLOAD,2023-04-27 03:28:00,15.07205325,0.0001137,53.22,61.8636,113.771,246.3401,-5.3136e-05,-1.092e-05,0.0,0 STARLINK-5215,1 54759U 22175B   23117.14444954 -.00001092  00000-0 -53136-4 0  9992,2 54759  53.2200  61.8636 0001137 113.7710 246.3401 15.07205325 19680,6922.881,95.541,545.534,543.959,0.0
54759.0,STARLINK-5215,PAYLOAD,2023-04-27 05:03:29,15.0720634,0.0001213,53.2209,61.5661,109.3548,250.7575,-1.6694e-05,-5.37e-06,0.0,0 STARLINK-5215,1 54759U 22175B   23117.21076044 -.00000537  00000-0 -16694-4 0  9992,2 54759  53.2209  61.5661 0001213 109.3548 250.7575 15.07206340 21850,6922.878,95.541,545.583,543.904,0.0
54759.0,STARLINK-5215,PAYLOAD,2023-04-28 04:55:49,15.0721235,0.0001046,53.22,57.1123,88.8585,271.2526,0.00031175,4.466e-05,0.0,0 STARLINK-5215,1 54759U 22175B   23118.20543230  .00004466  00000-0  31175-3 0  9991,2 54759  53.2200  57.1123 0001046  88.8585 271.2526 15.07212350 19849,6922.86,95.541,545.449,544.001,0.0
54759.0,STARLINK-5215,PAYLOAD,2023-04-28 12:53:17,15.07199475,0.0001768,53.2182,55.6251,91.5312,268.5881,0.00013062,1.705e-05,0.0,0 STARLINK-5215,1 54759U 22175B   23118.53700643  .00001705  00000-0  13062-3 0  9998,2 54759  53.2182  55.6251 0001768  91.5312 268.5881 15.07199475 19893,6922.899,95.541,545.988,543.54,0.0
54759.0,STARLINK-5215,PAYLOAD,2023-04-29 04:48:10,15.07205972,0.0001415,53.2187,52.6578,84.6997,275.4156,2.9214e-05,1.61e-06,0.0,0 STARLINK-5215,1 54759U 22175B   23119.20012070  .00000161  00000-0  29214-4 0  9995,2 54759  53.2187  52.6578 0001415  84.6997 275.4156 15.07205972 22153,6922.879,95.541,545.724,543.765,0.0
54759.0,STARLINK-5215,PAYLOAD,2023-04-29 19:07:34,15.0720764,0.0001434,53.2188,49.9864,87.333,272.7826,-5.2987e-05,-1.09e-05,0.0,0 STARLINK-5215,1 54759U 22175B   23119.79692800 -.00001090  00000-0 -52987-4 0  9991,2 54759  53.2188  49.9864 0001434  87.3330 272.7826 15.07207640 20081,6922.874,95.541,545.732,543.747,0.0
54759.0,STARLINK-5215,PAYLOAD,2023-04-30 04:40:30,15.07213149,0.0001484,53.219,48.2043,87.1317,272.9844,8.6847e-05,1.039e-05,0.0,0 STARLINK-5215,1 54759U 22175B   23120.19479695  .00001039  00000-0  86847-4 0  9995,2 54759  53.2190  48.2043 0001484  87.1317 272.9844 15.07213149 22303,6922.857,95.541,545.75,543.695,0.0
